ZA-AEROSAT
1 42713U 98067LU  18048.13101544  .00017438  00000-0  19180-3 0  9992
2 42713  51.6346 247.9868 0002386  97.3894 262.7372 15.63260457 42720
LINK
1 42714U 98067LV  18048.50616682  .00037430  00000-0  32950-3 0  9992
2 42714  51.6319 242.1948 0001970 115.0650 245.0552 15.68373865 42944
CSUNSAT1
1 42715U 98067LW  18048.05369011  .00017585  00000-0  19141-3 0  9990
2 42715  51.6360 248.2277 0004074  90.5668 269.5794 15.63517683 42714
UPSAT
1 42716U 98067LX  18047.78341470 +.00026516 +00000-0 +24835-3 0  9999
2 42716 051.6346 246.4072 0003789 162.1359 197.9771 15.67025272042842
SPACECUBE
1 42717U 98067LY  18048.51930193  .00022183  00000-0  22818-3 0  9993
2 42717  51.6345 244.5733 0003778 160.8573 199.2565 15.64787297 42177
HOOPOE
1 42718U 98067LZ  18048.18117549  .00028113  00000-0  27463-3 0  9999
2 42718  51.6352 245.3180 0003680 159.4401 200.6743 15.65940220 42136
CHALLENGER
1 42721U 98067MA  18048.50855937  .00048598  00000-0  39049-3 0  9991
2 42721  51.6332 240.7091 0005453 152.0161 208.1131 15.70455772 41929
NJUST-1
1 42722U 98067MB  18048.13059409  .00016424  00000-0  18547-3 0  9994
2 42722  51.6357 248.7386 0006578 141.5509 218.5955 15.62616274 41780
UNSW-EC0
1 42723U 98067MC  18048.53234436  .00028205  00000-0  27341-3 0  9996
2 42723  51.6363 243.9254 0005923 145.6203 214.5177 15.66120507 41862
DUTHSAT
1 42724U 98067MD  18048.05416911  .00040033  00000-0  33410-3 0  9991
2 42724  51.6335 243.6972 0004861 150.9780 209.1488 15.69632256 41749
LILACSAT-1
1 42725U 98067ME  18048.01767804  .00014712  00000-0  15898-3 0  9993
2 42725  51.6387 248.4536 0006150 140.6275 351.0013 15.63855691 41682
NSIGHT-1
1 42726U 98067MF  18048.05188649  .00007842  00000-0  10335-3 0  9999
2 42726  51.6376 251.9860 0006209 142.2727 217.8702 15.59458617 41647
SNUSAT-1
1 42727U 98067MG  18048.06284884  .00019138  00000-0  20547-3 0  9996
2 42727  51.6340 248.2568 0006939 108.4391 251.7359 15.63787309 41658
QBITO
1 42728U 98067MH  18048.10506596  .00022920  00000-0  23581-3 0  9993
2 42728  51.6375 247.0981 0003285 150.3388 209.7794 15.64762135 41518
AALTO-2
1 42729U 98067MJ  18048.03520702  .00022523  00000-0  23075-3 0  9998
2 42729  51.6355 247.3541 0003276 149.6976 210.4209 15.64880536 41512
SUSAT
1 42730U 98067MK  18048.01344291  .00019718  00000-0  20766-3 0  9991
2 42730  51.6350 247.9499 0003366 145.9889 214.1323 15.64274821 41498
IINSPIRE
1 42731U 98067ML  18047.79872890  .00026650  00000-0  25509-3 0  9990
2 42731  51.6343 247.2387 0005738  97.7464 262.4183 15.66471110 41535
POLYITAN-2
1 42732U 98067MM  18048.14394214  .00024319  00000-0  24649-3 0  9994
2 42732  51.6349 246.5558 0006027  96.4055 263.7626 15.65088351 41578
SNUSAT-1B
1 42733U 98067MN  18048.52605114  .00019803  00000-0  20833-3 0  9994
2 42733  51.6350 245.3639 0006228 100.3107 259.8590 15.64286005 41621
EXALTA-1
1 42734U 98067MP  18048.12293573  .00031662  00000-0  30069-3 0  9992
2 42734  51.6332 245.6503 0006990 121.9551 238.2125 15.66559778 41530
AOXIANG-1
1 42735U 98067MQ  18048.24259254  .00016143  00000-0  18108-3 0  9991
2 42735  51.6350 247.9741 0007034 138.7094 221.4433 15.62800612 42931
BEEAGLESAT
1 42736U 98067MR  18048.12875905  .00019208  00000-0  20772-3 0  9991
2 42736  51.6346 247.9608 0006805 138.3837 221.7677 15.63599889 41614
ATLANTIS
1 42737U 98067MS  18048.53390065  .00175696  00000-0  73249-3 0  9997
2 42737  51.6247 232.4872 0003731 195.2422 164.8470 15.84636127 41746
CAS-4A
1 42761U 17034D   18048.14004631  .00000242  00000-0  28475-4 0  9993
2 42761  43.0196  22.0992 0007756  72.5180  34.0788 15.09266460 37309
CAS-4B
1 42759U 17034B   18048.20323806  .00000200  00000-0  25920-4 0  9991
2 42759  43.0189  21.9060 0007346  70.0232 313.7377 15.09190510 37323
NIUSAT
1 42766U 17036B   18047.94564102 +.00001067 +00000-0 +52370-4 0  9998
2 42766 097.4178 109.1844 0017575 122.0347 238.2598 15.20118612036265
LITUANICASAT-2
1 42768U 17036D   18047.94808203 +.00002118 +00000-0 +98750-4 0  9993
2 42768 097.4186 109.3383 0017441 124.8629 235.4249 15.20838680036289
AALTO-1
1 42775U 17036L   18047.94069137 +.00000909 +00000-0 +44590-4 0  9995
2 42775 097.4173 109.3343 0015748 122.2376 238.0388 15.20517671036229
URSA-MAIOR
1 42776U 17036M   18047.73542588 +.00000927 +00000-0 +45331-4 0  9993
2 42776 097.4179 109.1609 0015609 123.1561 237.1175 15.20582256036192
MAX-VALIER
1 42778U 17036P   18047.73595162 +.00000963 +00000-0 +46412-4 0  9992
2 42778 097.4200 109.3653 0014130 127.9759 232.2755 15.21034545036193
PEGASUS
1 42784U 17036V   18047.69645253 +.00001192 +00000-0 +56207-4 0  9999
2 42784 097.4180 109.3616 0013707 134.0889 226.1478 15.21342676036199
NUDTSAT
1 42787U 17036Y   18047.72047304 +.00001741 +00000-0 +79665-4 0  9992
2 42787 097.4184 109.4855 0013284 134.0572 226.1760 15.21777918036040
SUCHAI
1 42788U 17036Z   18048.13315609  .00001472  00000-0  68262-4 0  9997
2 42788  97.4179 109.8449 0013354 132.6571 227.5793 15.21558579 36332
UCLSAT
1 42789U 17036AA  18047.73600494 +.00001319 +00000-0 +61511-4 0  9992
2 42789 097.4178 109.4558 0013155 133.7638 226.4689 15.21544439036190
VZLUSAT-1
1 42790U 17036AB  18047.71182583 +.00001738 +00000-0 +79496-4 0  9992
2 42790 097.4180 109.4852 0012847 134.2327 225.9966 15.21808271036199
VENTA-1
1 42791U 17036AC  18047.72232449 +.00001288 +00000-0 +60051-4 0  9998
2 42791 097.4178 109.4721 0012768 134.3637 225.8647 15.21613068036181
ROBUSTA-1B
1 42792U 17036AD  18047.64989079  .00001356  00000-0  62932-4 0  9994
2 42792  97.4177 109.4104 0012716 134.9667 225.2602 15.21680940 36197
D-SAT
1 42794U 17036AF  18047.70017820  .00000376  00000-0  38645-4 0  9994
2 42794  97.6094 106.8035 0126287 323.6638  35.6054 14.90781557 35775
SKCUBE
1 42796U 17036AH  18047.94703360 +.00045393 +14992-5 +18926-3 0  9990
2 42796 094.5988 034.2557 0021344 079.5489 280.8191 15.85381536037470
BIRD-J
1 42820U 98067MU  18047.81302363 +.00015846 +00000-0 +17816-3 0  9992
2 42820 051.6348 251.1048 0002969 084.0948 276.0384 15.62776066035021
BIRD-G
1 42821U 98067MV  18047.77040192 +.00015629 +00000-0 +17778-3 0  9993
2 42821 051.6349 251.5705 0003012 086.6488 273.4850 15.62486981034992
BIRD-M
1 42822U 98067MW  18047.82933383 +.00016505 +00000-0 +18657-3 0  9994
2 42822 051.6351 251.2163 0003028 088.9635 271.1706 15.62601007035003
BIRD-B
1 42823U 98067MX  18048.53389856  .00017638  00000-0  19841-3 0  9998
2 42823  51.6356 247.6813 0005887 105.3874 254.7771 15.62660112 35094
BIRD-N
1 42824U 98067MY  18047.77854712 +.00016007 +00000-0 +18170-3 0  9995
2 42824 051.6363 251.6457 0005816 103.9021 256.2620 15.62508735034992
TECHNOSAT
1 42829U 17042E   18048.48800328  .00000277  00000-0  33669-4 0  9990
2 42829  97.6065 315.2842 0012995 234.5660 125.4346 14.90768086 32501
TPU-120
1 42910U 98067MZ  18047.88993345  .00013090  00000-0  16098-3 0  9995
2 42910  51.6347 253.1063 0007044 121.3180 238.8503 15.60604103 28572
TANUSHA-1
1 42911U 98067NA  18048.12163043  .00016635  00000-0  19907-3 0  9998
2 42911  51.6357 251.6808 0006550 118.2397 241.9258 15.61094391 28597
TANUSHA-2
1 42912U 98067NB  18048.53674188  .00015535  00000-0  18888-3 0  9996
2 42912  51.6354 249.9174 0005997 131.0696 229.0816 15.60742327 28674
QIKOM-1
1 42983U 98067NF  18048.17515111  .00002482  00000-0  42889-4 0  9990
2 42983  51.6414 256.3446 0005486 116.7699 340.4896 15.55354240 17535
EAGLESAT
1 43016U 17073D   18048.31422163  .00001206  00000-0  10112-3 0  9992
2 43016  97.7001 344.5090 0259053 302.0117  55.6159 14.77930605 13426
FOX-1B
1 43017U 17073E   18047.77293301 +.00000893 +00000-0 +76479-4 0  9992
2 43017 097.7002 343.9927 0259224 303.7948 053.8819 14.77904357013327
ECAMSAT
1 43019U 98067NG  18048.02259553  .00005091  00000-0  79439-4 0  9990
2 43019  51.6384 257.0322 0005703  89.0503 271.1142 15.55726353 99836
OSIRIS-3U
1 43027U 98067NL  18048.13534048  .00022007  00000-0  29053-3 0  9998
2 43027  51.6372 255.5377 0003256  78.7663 281.3695 15.58296364 13668
INS1C
1 43116U 18004F   18048.10347683  .00001175  00000-0  54587-4 0  9998
2 43116  97.5554 110.3982 0011039 142.0567 218.1449 15.21978139  5465
MICROMAS-2A
1 43131U 18004W   18048.16177672  .00001963  00000-0  88237-4 0  9994
2 43131  97.5501 110.4447 0010804 150.7507 209.4336 15.22316276  5456
PICSAT
1 43132U 18004X   18047.83333346 +.00001335 +00000-0 +61052-4 0  9999
2 43132 097.5503 110.1154 0010876 152.1712 208.0108 15.22288478005403
FOX-1D
1 43137U 18004AC  18047.69844154 +.00001046 +00000-0 +48331-4 0  9996
2 43137 097.5501 109.9871 0010307 153.8859 206.2899 15.22426704005387
TIANYI-2
1 43155U 18008A   18048.25330284  .00000215  00000-0  16991-4 0  9991
2 43155  97.5345 124.7165 0017520 192.9132 254.4166 15.10338776  4385
TIANYI-6
1 43157U 18008C   18048.52893703  .00000664  00000-0  45309-4 0  9996
2 43157  97.5432 124.9751 0015841 179.9311 237.5603 15.09509869  4429
DSTAR-1
1 43184U 18014E   18048.20190399  .00000019  00000-0  69178-5 0  9994
2 43184  97.7251 318.1356 0013017 192.9101 167.1811 14.95721804  2373
FMN-1
1 43192U 18015A   18047.96399570 +.00001967 +00000-0 +88256-4 0  9998
2 43192 097.3378 179.5195 0016033 201.0789 158.9786 15.22253858002226
SHAONIAN-XING
1 43199U 18015H   18047.95427388 +.00001533 +00000-0 +67425-4 0  9997
2 43199 097.3153 179.4917 0016777 215.5464 144.4652 15.23259697002231
NOAA 15                 
1 25338U 98030A   18048.61594487  .00000007  00000-0  21896-4 0  9993
2 25338  98.7762  64.9274 0010034 209.5807 150.4806 14.25839064 27727
METEOSAT-8 (MSG-1)      
1 27509U 02040B   18047.63823904  .00000135  00000-0  00000-0 0  9993
2 27509   5.2599  57.4286 0002067 338.2261  21.9879  1.00275731 56752
KALPANA-1 (METSAT 1)    
1 27525U 02043A   18044.54834012 -.00000080  00000-0  00000-0 0  9993
2 27525   6.7436  53.7198 0016043 243.0050 116.9755  1.00272470 56525
